QIANFAN-65              
1 62795U 25016L   25217.63554783  .00000134  00000+0  18919-3 0  9999
2 62795  88.9827 116.4008 0014671   4.9398 355.1895 13.50961208 29816
QIANFAN-66              
1 62796U 25016M   25217.66421482  .00000123  00000+0  17139-3 0  9993
2 62796  88.9847 116.3427 0015619   0.0532   0.0618 13.50956234 29860
QIANFAN-67              
1 62797U 25016N   25217.66844438  .00000130  00000+0  18314-3 0  9998
2 62797  88.9837 116.3805 0015842   6.5894 353.5463 13.50964984 29832
QIANFAN-68              
1 62798U 25016P   25217.67250122  .00000131  00000+0  18384-3 0  9999
2 62798  88.9840 116.4236 0016403   4.6707 355.4594 13.50962389 29813
QIANFAN-69              
1 62799U 25016Q   25217.67656739  .00000133  00000+0  18687-3 0  9992
2 62799  88.9819 116.3174 0016600   5.5317 354.6015 13.50958066 29856
QIANFAN-70              
1 62800U 25016R   25217.69309656  .00000115  00000+0  15883-3 0  9995
2 62800  88.9841 116.4267 0015842 356.4846   3.6191 13.50961815 29818
QIANFAN-71              
1 62801U 25016S   25217.68906478  .00000120  00000+0  16729-3 0  9996
2 62801  88.9834 116.4146 0016641   8.8672 351.2770 13.50961638 29818
QIANFAN-72              
1 62802U 25016T   25217.68480500  .00000128  00000+0  17971-3 0  9998
2 62802  88.9824 116.4362 0020246  13.8099 346.3602 13.50957045 29808
